NORAD_CAT_ID,OBJECT_NAME,OBJECT_TYPE,EPOCH,MEAN_MOTION,ECCENTRICITY,INCLINATION,RA_OF_ASC_NODE,ARG_OF_PERICENTER,MEAN_ANOMALY,BSTAR,MEAN_MOTION_DOT,MEAN_MOTION_DDOT,TLE_LINE0,TLE_LINE1,TLE_LINE2,SEMIMAJOR_AXIS,PERIOD,APOGEE,PERIGEE,DECAYED
51959.0,STARLINK-3704,PAYLOAD,2022-04-15 01:39:26,15.73208717,0.000148,53.2145,319.1135,113.8766,246.2409,-3.8746e-05,-6.056e-05,0.0,0 STARLINK-3704,1 51959U 22025D   22105.06905992 -.00006056  00000-0 -38746-4 0  9991,2 51959  53.2145 319.1135 0001480 113.8766 246.2409 15.73208717  7015,6727.87,91.533,350.731,348.74,0.0
51959.0,STARLINK-3704,PAYLOAD,2022-04-15 14:00:01,15.73282915,0.0001356,53.2141,316.5688,136.0283,258.5139,0.00033628,0.00047007,0.0,0 STARLINK-3704,1 51959U 22025D   22105.58334491  .00047007  00000-0  33628-3 0  9990,2 51959  53.2141 316.5688 0001356 136.0283 258.5139 15.73282915  7094,6727.659000000002,91.528,350.436,348.612,0.0
51959.0,STARLINK-3704,PAYLOAD,2022-04-15 22:00:00,15.73292686,0.0001299,53.2137,314.9211,124.0826,359.5098,-0.00052182,-0.00073507,0.0,0 STARLINK-3704,1 51959U 22025D   22105.91667824 -.00073507  00000-0 -52182-3 0  9998,2 51959  53.2137 314.9211 0001299 124.0826 359.5098 15.73292686  7147,6727.630999999999,91.528,350.37,348.622,0.0
51959.0,STARLINK-3704,PAYLOAD,2022-04-16 14:00:01,15.73082058,0.000165,53.2134,311.6196,129.767,171.7364,-0.00038571,-0.00054135,0.0,0 STARLINK-3704,1 51959U 22025D   22106.58334491 -.00054135  00000-0 -38571-3 0  9995,2 51959  53.2134 311.6196 0001650 129.7670 171.7364 15.73082058  7252,6728.231,91.54,351.207,348.986,0.0
51959.0,STARLINK-3704,PAYLOAD,2022-04-16 22:00:01,15.73045343,0.0001464,53.2135,309.9723,121.2326,269.1126,0.00099242,0.00140074,0.0,0 STARLINK-3704,1 51959U 22025D   22106.91668981  .00140074  00000-0  99242-3 0  9994,2 51959  53.2135 309.9723 0001464 121.2326 269.1126 15.73045343  7307,6728.3359999999975,91.542,351.186,349.216,0.0
51959.0,STARLINK-3704,PAYLOAD,2022-04-17 14:00:01,15.73255383,0.0001565999999999,53.2136,306.6712,128.4637,79.5013,0.00030929,0.00043113,0.0,0 STARLINK-3704,1 51959U 22025D   22107.58334491  .00043113  00000-0  30929-3 0  9997,2 51959  53.2136 306.6712 0001566 128.4637  79.5013 15.73255383  3713,6727.736999999999,91.53,350.656,348.5490000000001,0.0
51959.0,STARLINK-3704,PAYLOAD,2022-04-17 22:00:00,15.73275228,0.0001369,53.2133,305.0233,116.8952,180.1033,-0.00047483,-0.00066946,0.0,0 STARLINK-3704,1 51959U 22025D   22107.91667824 -.00066946  00000-0 -47483-3 0  9997,2 51959  53.2133 305.0233 0001369 116.8952 180.1033 15.73275228  3703,6727.681,91.529,350.467,348.625,0.0
51959.0,STARLINK-3704,PAYLOAD,2022-04-18 08:00:01,15.73241645,0.0001351,53.2129,302.9591,129.2125,9.0283,-0.0001411,-0.0002041,0.0,0 STARLINK-3704,1 51959U 22025D   22108.33334491 -.00020410  00000-0 -14110-3 0  9992,2 51959  53.2129 302.9591 0001351 129.2125   9.0283 15.73241645  7528,6727.776,91.531,350.55,348.733,0.0
51959.0,STARLINK-3704,PAYLOAD,2022-04-18 14:00:01,15.73232037,0.0001418,53.2132,301.7216,129.5101,345.4524,-8.7069e-05,-0.00012838,0.0,0 STARLINK-3704,1 51959U 22025D   22108.58334491 -.00012838  00000-0 -87069-4 0  9998,2 51959  53.2132 301.7216 0001418 129.5101 345.4524 15.73232037  3700,6727.804,91.531,350.62300000000016,348.715,0.0
51959.0,STARLINK-3704,PAYLOAD,2022-04-18 22:00:00,15.73196799,0.0001312,53.2135,300.074,115.2352,88.6924,-0.00021538,-0.00030732,0.0,0 STARLINK-3704,1 51959U 22025D   22108.91667824 -.00030732  00000-0 -21538-3 0  9995,2 51959  53.2135 300.0740 0001312 115.2352  88.6924 15.73196799  3704,6727.904,91.533,350.652,348.88699999999994,0.0
51959.0,STARLINK-3704,PAYLOAD,2022-04-19 14:00:01,15.73261566,0.0001339,53.2137,296.7726,122.6673,259.1045,-0.00041532,-0.00058656,0.0,0 STARLINK-3704,1 51959U 22025D   22109.58334491 -.00058656  00000-0 -41532-3 0  9991,2 51959  53.2137 296.7726 0001339 122.6673 259.1045 15.73261566  7728,6727.72,91.53,350.485,348.684,0.0
51959.0,STARLINK-3704,PAYLOAD,2022-04-20 14:00:01,15.73252196,8.66e-05,53.2134,291.8238,142.7627,145.8047,-0.0016422999999999,-0.00225525,0.0,0 STARLINK-3704,1 51959U 22025D   22110.58334491 -.00225525  00000-0 -16423-2 0  9994,2 51959  53.2134 291.8238 0000866 142.7627 145.8047 15.73252196  7884,6727.746,91.53,350.194,349.029,0.0
51959.0,STARLINK-3704,PAYLOAD,2022-04-20 22:00:00,15.73011437,4.429999999999999e-05,53.2136,290.1762,149.0811,228.4054,0.0010426,0.00147099,0.0,0 STARLINK-3704,1 51959U 22025D   22110.91667824  .00147099  00000-0  10426-2 0  9994,2 51959  53.2136 290.1762 0000443 149.0811 228.4054 15.73011437  7939,6728.433000000001,91.544,350.596,350.0,0.0
51959.0,STARLINK-3704,PAYLOAD,2022-04-21 06:00:00,15.73324724,8.93e-05,53.2165,288.5151,113.6853,352.4794,-0.00067112,-0.00094255,0.0,0 STARLINK-3704,1 51959U 22025D   22111.25001157 -.00094255  00000-0 -67112-3 0  9995,2 51959  53.2165 288.5151 0000893 113.6853 352.4794 15.73324724  7986,6727.54,91.526,350.005,348.80400000000014,0.0
51959.0,STARLINK-3704,PAYLOAD,2022-04-21 14:00:01,15.73251799,6.579999999999999e-05,53.2139,286.8756,131.9446,63.1946,0.00031253,0.00043566,0.0,0 STARLINK-3704,1 51959U 22025D   22111.58334491  .00043566  00000-0  31253-3 0  9995,2 51959  53.2139 286.8756 0000658 131.9446  63.1946 15.73251799  3712,6727.746999999999,91.53,350.055,349.17,0.0
51959.0,STARLINK-3704,PAYLOAD,2022-04-21 22:00:00,15.73267095,6.18e-05,53.2135,285.2277,97.203,186.9685,0.00030614,0.00042687,0.0,0 STARLINK-3704,1 51959U 22025D   22111.91667824  .00042687  00000-0  30614-3 0  9994,2 51959  53.2135 285.2277 0000618  97.2030 186.9685 15.73267095  3718,6727.704000000002,91.529,349.985,349.153,0.0
51959.0,STARLINK-3704,PAYLOAD,2022-04-22 14:00:01,15.73266165,0.0001019,53.2133,281.9266,107.1396,355.0659,-0.00044331,-0.00062548,0.0,0 STARLINK-3704,1 51959U 22025D   22112.58334491 -.00062548  00000-0 -44331-3 0  9990,2 51959  53.2133 281.9266 0001019 107.1396 355.0659 15.73266165  3705,6727.706999999999,91.529,350.25699999999995,348.886,0.0
51959.0,STARLINK-3704,PAYLOAD,2022-04-22 16:00:00,15.73262001,0.0001001,53.2133,281.5149,102.0857,112.3683,-0.00054481,-0.00076587,0.0,0 STARLINK-3704,1 51959U 22025D   22112.66667824 -.00076587  00000-0 -54481-3 0  9993,2 51959  53.2133 281.5149 0001001 102.0857 112.3683 15.73262001  8204,6727.718000000003,91.53,350.25699999999995,348.91,0.0
51959.0,STARLINK-3704,PAYLOAD,2022-04-23 14:00:01,15.732382800000002,9.3e-05,53.2178,276.9623,97.6701,271.1485,-0.00062723,-0.00087873,0.0,0 STARLINK-3704,1 51959U 22025D   22113.58334491 -.00087873  00000-0 -62723-3 0  9994,2 51959  53.2178 276.9623 0000930  97.6701 271.1485 15.73238280  3699,6727.786,91.531,350.277,349.025,0.0
51959.0,STARLINK-3704,PAYLOAD,2022-04-23 22:00:00,15.72897827,0.0001047,53.2165,275.3159,97.8695,0.0777,-0.0013827,-0.00187949,0.0,0 STARLINK-3704,1 51959U 22025D   22113.91667824 -.00187949  00000-0 -13827-2 0  9995,2 51959  53.2165 275.3159 0001047  97.8695   0.0777 15.72897827  8400,6728.757,91.551,351.326,349.917,0.0
51959.0,STARLINK-3704,PAYLOAD,2022-04-24 06:00:00,15.72764085,0.0001131,53.2174,273.6607,80.5121,105.9505,-0.0056489,-0.00715667,0.0,0 STARLINK-3704,1 51959U 22025D   22114.25001157 -.00715667  00000-0 -56489-2 0  9999,2 51959  53.2174 273.6607 0001131  80.5121 105.9505 15.72764085  8454,6729.138000000001,91.559,351.764,350.242,0.0
51959.0,STARLINK-3704,PAYLOAD,2022-04-24 14:00:01,15.72255792,0.0001152,53.2175,272.0124,84.6431,189.9138,-0.0057998999999999,-0.00718701,0.0,0 STARLINK-3704,1 51959U 22025D   22114.58334491 -.00718701  00000-0 -57999-2 0  9994,2 51959  53.2175 272.0124 0001152  84.6431 189.9138 15.72255792  3701,6730.5880000000025,91.588,353.22900000000016,351.67800000000005,0.0
51959.0,STARLINK-3704,PAYLOAD,2022-04-25 06:00:00,15.712339000000002,0.0001011,53.2174,268.717,79.7381,9.1723,-0.0060264,-0.00715246,0.0,0 STARLINK-3704,1 51959U 22025D   22115.25001157 -.00715246  00000-0 -60264-2 0  9999,2 51959  53.2174 268.7170 0001011  79.7381   9.1723 15.71233900  8610,6733.505999999999,91.648,356.052,354.691,0.0
51959.0,STARLINK-3704,PAYLOAD,2022-04-25 14:00:01,15.70724472,0.0001207,53.2176,267.0724,74.4484,100.7183,-0.006164,-0.0071597,0.0,0 STARLINK-3704,1 51959U 22025D   22115.58334491 -.00715970  00000-0 -61640-2 0  9998,2 51959  53.2176 267.0724 0001207  74.4484 100.7183 15.70724472  3714,6734.962,91.677,357.64,356.014,0.0
51959.0,STARLINK-3704,PAYLOAD,2022-04-25 22:00:00,15.70214566,0.000113,53.2173,265.4291,89.1611,171.6489,-0.0062898,-0.00715129,0.0,0 STARLINK-3704,1 51959U 22025D   22115.91667824 -.00715129  00000-0 -62898-2 0  9996,2 51959  53.2173 265.4291 0001130  89.1611 171.6489 15.70214566  3705,6736.42,91.707,359.046,357.524,0.0
51959.0,STARLINK-3704,PAYLOAD,2022-04-26 06:00:00,15.69704088,0.0001024,53.2173,263.7842,74.9076,270.9355,-0.0064274,-0.00715277,0.0,0 STARLINK-3704,1 51959U 22025D   22116.25001157 -.00715277  00000-0 -64274-2 0  9999,2 51959  53.2173 263.7842 0001024  74.9076 270.9355 15.69704088  8775,6737.880999999999,91.737,360.436,359.056,0.0
51959.0,STARLINK-3704,PAYLOAD,2022-04-26 14:00:01,15.69196125,0.0001155,53.2174,262.1437,59.6156,10.71,-0.0065959999999999,-0.00718409,0.0,0 STARLINK-3704,1 51959U 22025D   22116.58335648 -.00718409  00000-0 -65960-2 0  9993,2 51959  53.2174 262.1437 0001155  59.6156  10.7100 15.69196125  3694,6739.335,91.767,361.978,360.421,0.0
51959.0,STARLINK-3704,PAYLOAD,2022-04-26 22:00:00,15.68685438,0.0001244,53.217,260.5041,62.6069,91.4587,-0.0067194999999999,-0.00716679,0.0,0 STARLINK-3704,1 51959U 22025D   22116.91667824 -.00716679  00000-0 -67195-2 0  9993,2 51959  53.2170 260.5041 0001244  62.6069  91.4587 15.68685438  3671,6740.797,91.797,363.501,361.824,0.0
51959.0,STARLINK-3704,PAYLOAD,2022-04-27 06:00:00,15.68174267,0.0001168,53.2173,258.8627,77.4117,159.8487,-0.0068404,-0.00714496,0.0,0 STARLINK-3704,1 51959U 22025D   22117.25001157 -.00714496  00000-0 -68404-2 0  9991,2 51959  53.2173 258.8627 0001168  77.4117 159.8487 15.68174267  8932,6742.262,91.827,364.915,363.34,0.0
